{"fetched_at":"2026-03-30T13:17:50Z","count":15418,"tles":[{"name":"STARLINK-11699 [DTC]","line1":"1 63762U 25089M   26087.65344796  .00237402  00000+0  17893-2 0  9992","line2":"2 63762  43.0043 178.3258 0004765 276.3525  83.6800 15.70991309 53115","category":"Starlink"}]}