{
  "norad_id": 63762,
  "name": "STARLINK-11699 [DTC]",
  "history": [
    {
      "epoch": "2026-03-28T15:40:57.903744Z",
      "apogee_km": 359.27147296200565,
      "perigee_km": 352.85378071762716,
      "latitude_deg": 1.2636937341977924e-06,
      "longitude_deg": 117.01373221794734,
      "height_km": 355.4825814077482,
      "semi_major_axis_km": 6734.199626839816,
      "eccentricity": 0.0004765,
      "inclination_deg": 43.0043,
      "raan_deg": 178.3258,
      "arg_perigee_deg": 276.3525,
      "mean_anomaly_deg": 83.68,
      "mean_motion_rev_day": 15.70991309
    }
  ]
}